233P/La Sagra,e,11.2841,74.9270,27.0688,3.030337,0.1868391,0.41174215,336.1418,05/27.0/2020,2000,g 15.0,4.0
# From MPC110497
234P/LINEAR,e,11.5240,179.5691,357.3959,3.803155,0.1328887,0.25406561,145.3204,05/27.0/2020,2000,g 12.0,4.0
# From MPC110497
235P/LINEAR,e,8.8858,203.9302,333.5368,3.984311,0.1239293,0.31940013,99.4303,05/27.0/2020,2000,g 12.0,4.0
# From MPC107688
236P/LINEAR,e,16.3338,245.6570,119.1976,3.731375,0.1367416,0.50839630,125.6139,05/27.0/2020,2000,g 14.0,4.0
# From MPC109593
237P/LINEAR,e,14.0215,245.4168,25.1692,3.512398,0.1497265,0.43474915,198.0039,05/27.0/2020,2000,g 14.5,2.0
# From MPC107688
238P/Read,e,1.2645,51.6431,324.7026,3.163358,0.1751788,0.25231605,230.1828,05/27.0/2020,2000,g 14.5,4.0
# From MPC112394
239P/LINEAR,e,11.3029,255.9131,220.4339,4.471342,0.1042431,0.63068746,52.4244,05/27.0/2020,2000,g 17.5,2.0
# From MPC109593
240P/NEAT,e,23.5048,74.9237,352.0111,3.868525,0.1295347,0.44868535,96.1694,05/27.0/2020,2000,g 11.0,4.0
# From MPC 75729
241P/LINEAR,e,21.0971,305.4813,111.2327,4.934024,0.0899295,0.61074351,321.8361,05/27.0/2020,2000,g 13.5,4.0
# From MPC 81861
242P/Spahr,e,32.4807,180.4851,246.2489,5.477276,0.0768878,0.27788106,230.4997,05/27.0/2020,2000,g  8.0,4.0
# From MPC111774
243P/NEAT,e,7.6414,87.6562,283.5243,3.831611,0.1314111,0.35972316,84.0964,05/27.0/2020,2000,g 12.5,4.0
# From MPC 88331
244P/Scotti,e,2.2591,353.9904,92.8632,4.895475,0.0909938,0.19828523,277.8255,05/27.0/2020,2000,g  9.0,4.0
# From MPC111774
245P/WISE,e,21.1970,316.6530,316.8063,4.042233,0.1212752,0.45766918,101.6488,05/27.0/2020,2000,g 14.0,4.0
# From MPEC 2020-HN5
246P/NEAT,e,15.9872,78.7483,176.2560,4.015903,0.1224699,0.28679154,326.7326,05/27.0/2020,2000,g 10.5,4.0
# From MPC112394
247P/LINEAR,e,13.6567,54.0123,47.4855,3.970477,0.1245776,0.62457430,67.5251,05/27.0/2020,2000,g 16.5,2.0
# From MPC 75730
248P/Gibbs,e,6.3464,207.7463,209.9217,5.990581,0.0672203,0.63782438,229.5905,05/27.0/2020,2000,g 14.0,4.0
# From MPEC 2020-HN5
249P/LINEAR,e,8.3971,239.1775,65.6075,2.761901,0.2147297,0.82014333,352.8069,05/27.0/2020,2000,g 15.5,4.0
# From MPC110497
250P/Larson,e,13.2470,73.6681,45.8441,3.751233,0.1356572,0.40468457,114.5602,05/27.0/2020,2000,g 14.5,4.0
# From MPC104795
251P/LINEAR,e,23.4073,219.4028,31.2552,3.509638,0.1499031,0.50557628,156.7107,05/27.0/2020,2000,g 16.5,2.0
# From MPC102956
252P/LINEAR,e,10.4112,190.9543,343.3195,3.049260,0.1851025,0.67203958,284.1193,05/27.0/2020,2000,g 17.5,4.0
# From MPC112394
253P/PANSTARRS,e,4.9422,146.8752,230.6518,3.468123,0.1526028,0.41334014,114.4897,05/27.0/2020,2000,g 14.5,4.0
# From MPC 81473
254P/McNaught,e,32.5699,129.1723,219.4554,4.616922,0.0993517,0.32053516,347.5297,05/27.0/2020,2000,g 11.0,4.0
# From NK 2214
255P/Levy,e,15.3750,277.7377,184.1619,2.920181,0.1975102,0.72950716,198.4648,05/27.0/2020,2000,g  9.0,4.0
# From MPC 84027
256P/LINEAR,e,27.6370,81.3499,124.3135,4.635974,0.0987399,0.41847922,259.3639,05/27.0/2020,2000,g 14.0,2.0
# From MPC114608
257P/Catalina,e,20.2210,207.7521,117.6429,3.764600,0.1349354,0.43090936,345.5947,05/27.0/2020,2000,g 11.5,4.0
# From MPC 79655
258P/PANSTARRS,e,6.7458,126.2476,26.1188,4.402150,0.1067104,0.20912824,357.4795,05/27.0/2020,2000,g 13.0,4.0
# From MPC106349
259P/Garradd,e,15.8879,51.4648,257.5604,2.731117,0.2183703,0.33840542,224.1005,05/27.0/2020,2000,g 15.5,4.0
# From MPEC 2020-HN5
260P/McNaught,e,15.0524,349.3486,18.3984,3.622085,0.1429770,0.60888483,37.1781,05/27.0/2020,2000,g 13.5,4.0
# From MPEC 2019-TG9
261P/Larson,e,6.0762,291.1620,67.1253,3.489300,0.1512156,0.42298771,51.9091,05/27.0/2020,2000,g 14.0,4.0
# From MPC 82322
262P/McNaught-Russell,e,29.1617,217.9101,170.9986,6.877009,0.0546518,0.81499544,149.4845,05/27.0/2020,2000,g 13.5,4.0
# From MPC 89018
263P/Gibbs,e,11.5503,105.8169,34.4300,3.055216,0.1845615,0.58954786,178.9236,05/27.0/2020,2000,g  9.0,4.0
# From MPC114608
264P/Larsen,e,25.1375,220.8733,346.6838,3.898155,0.1280606,0.37447003,37.8958,05/27.0/2020,2000,g 13.0,4.0
# From MPC 79870
265P/LINEAR,e,14.3601,342.9539,33.4103,4.254530,0.1123121,0.64779158,331.0220,05/27.0/2020,2000,g 14.5,4.0
# From MPEC 2019-TG9
266P/Christensen,e,3.4258,5.0021,97.8535,3.535453,0.1482642,0.33948193,5.5556,05/27.0/2020,2000,g 12.5,4.0
# From MPC114608
267P/LONEOS,e,6.1375,228.6687,114.0851,3.212185,0.1711998,0.61396977,115.4758,05/27.0/2020,2000,g 19.5,4.0
# From MPC 92277
268P/Bernardi,e,16.1366,127.5831,0.0910,4.551594,0.1014983,0.47098962,188.6127,05/27.0/2020,2000,g 14.0,4.0
# From MPC104795
269P/Jedicke,e,7.0699,241.7022,225.9908,7.081621,0.0523004,0.43052294,107.9808,05/27.0/2020,2000,g 10.0,4.0
# From MPC 88332
270P/Gehrels,e,2.9172,222.9609,209.9298,6.669888,0.0572172,0.46682922,145.6653,05/27.0/2020,2000,g  8.0,4.0
# From MPC 92277
271P/van Houten-Lemmon,e,6.8652,9.2957,36.4835,7.049428,0.0526591,0.39319922,132.3464,05/27.0/2020,2000,g 11.0,4.0
# From MPC 81862
272P/NEAT,e,18.0762,109.4643,28.0023,4.453822,0.1048588,0.45415060,278.0556,05/27.0/2020,2000,g 16.0,2.0
# From MPC 82723
273P/Pons-Gambart,e,136.7523,320.4004,20.2962,31.69907,0.0055225,0.97403884,0.0000,12/16.9449/2012,2000,g 11.5,4.0
# From MPC 88332
274P/Tombaugh-Tenagra,e,15.8177,81.3357,38.5239,4.370514,0.1078711,0.43870403,286.4550,05/27.0/2020,2000,g 13.0,4.0
# From MPC 81862
275P/Hermann,e,21.2851,348.7569,174.1097,5.771040,0.0710924,0.71260642,192.7733,05/27.0/2020,2000,g 17.0,4.0
# From MPC114609
276P/Vorobjov,e,14.8214,211.4565,199.9778,5.311129,0.0805237,0.26735178,225.8186,05/27.0/2020,2000,g 11.5,4.0
# From MPC105243
277P/LINEAR,e,16.7791,276.3443,152.3185,3.851409,0.1303991,0.50548015,331.6760,05/27.0/2020,2000,g 14.0,4.0
# From MPEC 2020-HN5
278P/McNaught,e,6.6852,15.4497,238.0798,3.693026,0.1388771,0.43486667,344.9940,05/27.0/2020,2000,g 14.0,4.0
# From MPC100285
279P/La Sagra,e,5.0513,346.2255,5.7541,3.575822,0.1457606,0.39797191,205.7976,05/27.0/2020,2000,g 14.0,4.0
# From MPC 89013
280P/Larsen,e,11.7744,131.3967,104.8018,4.528782,0.1022662,0.41809455,240.9559,05/27.0/2020,2000,g 12.5,4.0
# From MPC 83145
281P/MOSS,e,4.7198,87.1710,26.9089,4.868930,0.0917389,0.17152085,269.8390,05/27.0/2020,2000,g 11.0,4.0
# From MPC xxxxx
282P/,e,5.8098,9.2998,217.5105,4.245088,0.1126871,0.18933449,301.9819,05/27.0/2020,2000,g 13.5,2.0
# From MPEC 2013-M31
283P/Spacewatch,e,14.4538,161.1393,22.2776,4.139122,0.1170420,0.48506584,305.1016,05/27.0/2020,2000,g  9.0,4.0
# From MPEC 2020-HN5
284P/McNaught,e,11.8584,144.2798,202.6553,3.675102,0.1398943,0.37586046,293.6374,05/27.0/2020,2000,g 13.0,4.0
# From MPC 85339
285P/LINEAR,e,25.0267,185.4855,178.4038,4.509106,0.1029363,0.61799445,261.1005,05/27.0/2020,2000,g 15.0,4.0
# From MPC 90771
286P/Christensen,e,17.0450,283.9660,24.7503,4.111407,0.1182275,0.42521128,275.4090,05/27.0/2020,2000,g 14.0,4.0
# From MPC 96868
287P/Christensen,e,16.3186,139.0398,188.8235,4.168051,0.1158256,0.27050549,228.7558,05/27.0/2020,2000,g 13.5,4.0
# From MPC xxxxx
288P/,e,3.2403,83.1874,280.7595,3.047282,0.1852828,0.20136353,240.3416,05/27.0/2020,2000,g 16.0,2.0
# From MPC118844
289P/Blanpain,e,5.8939,68.8897,9.8880,3.048205,0.1851986,0.68541791,29.2626,05/27.0/2020,2000,g  2.5,4.0
# From MPC 95214
290P/Jager,e,19.9963,302.7740,181.6421,6.149709,0.0646282,0.64455158,146.6379,05/27.0/2020,2000,g 10.5,4.0
# From MPC 89314
291P/NEAT,e,6.3318,238.2272,174.0536,4.508611,0.1029532,0.43667965,249.3560,05/27.0/2020,2000,g 13.0,4.0
# From MPC115887
292P/Li,e,24.2521,91.0022,319.4707,6.110644,0.0652490,0.58754934,150.6791,05/27.0/2020,2000,g 12.5,4.0
# From MPC 92278
293P/Spacewatch,e,9.0571,78.4117,41.0861,3.643276,0.1417314,0.41819134,330.7537,05/27.0/2020,2000,g 14.5,4.0
# From MPC 89013
294P/LINEAR,e,18.2163,312.5937,235.5496,3.206196,0.1716797,0.59436406,30.7735,05/27.0/2020,2000,g 15.5,4.0
# From MPC 93589
295P/LINEAR,e,21.0729,7.4154,72.9646,5.306590,0.0806271,0.61597840,178.3761,05/27.0/2020,2000,g 12.0,4.0
# From MPEC 2020-HN5
296P/Garradd,e,25.2350,263.6406,350.1229,3.496659,0.1507385,0.47851493,342.8279,05/27.0/2020,2000,g 14.0,4.0
# From MPC102956
297P/Beshore,e,10.3286,97.6612,132.4679,3.443029,0.1542741,0.31933692,322.8571,05/27.0/2020,2000,g 15.0,4.0
# From MPC114609
298P/Christensen,e,7.8701,52.8282,100.6949,3.593489,0.1446870,0.38690693,345.1851,05/27.0/2020,2000,g 15.0,4.0
# From MPC101100
299P/Catalina-PANSTARRS,e,10.4779,271.6230,323.9061,4.383498,0.1073922,0.28206000,206.0023,05/27.0/2020,2000,g 11.5,4.0
# From MPC114609
300P/Catalina,e,5.6765,95.6698,222.8642,2.700031,0.2221523,0.69168650,127.0322,05/27.0/2020,2000,g 16.0,4.0
# From MPC 89014
301P/LINEAR-NEAT,e,10.3453,351.1794,193.7307,5.737513,0.0717164,0.58578917,150.3495,05/27.0/2020,2000,g 13.0,4.0
# From MPEC 2020-HN5
302P/Lemmon-PANSTARRS,e,6.0341,121.7543,208.1675,4.277637,0.1114033,0.22975808,165.6079,05/27.0/2020,2000,g 12.5,4.0
# From MPC 92278
303P/NEAT,e,7.0172,347.9705,356.8497,5.049690,0.0868574,0.51003735,178.1215,05/27.0/2020,2000,g 13.5,4.0
# From MPC 92987
304P/Ory,e,2.6067,58.9370,335.2233,3.149912,0.1763017,0.60040209,346.3411,05/27.0/2020,2000,g 16.5,4.0
# From MPC101100
305P/Skiff,e,11.6402,240.1365,147.2628,4.645330,0.0984417,0.69269879,198.8943,05/27.0/2020,2000,g 18.0,4.0
# From MPC 92278
306P/LINEAR,e,8.3104,341.3827,0.8050,3.121584,0.1787070,0.59319359,22.3627,05/27.0/2020,2000,g 19.0,4.0
# From MPC 92278
307P/LINEAR,e,4.4313,158.1262,222.1669,5.795349,0.0706455,0.67397032,140.2595,05/27.0/2020,2000,g 15.0,4.0
# From MPC109148
308P/Lagerkvist-Carsenty,e,4.8494,63.1118,333.6334,6.608435,0.0580171,0.36262298,107.2748,05/27.0/2020,2000,g 13.0,2.0
# From MPC 94284
309P/LINEAR,e,17.0238,10.1442,49.9964,4.370693,0.1078645,0.61755185,208.6001,05/27.0/2020,2000,g 15.0,4.0
# From MPC 98566
310P/Hill,e,13.1283,8.9278,31.8823,4.177409,0.1154366,0.42167951,216.1077,05/27.0/2020,2000,g 13.5,4.0
# From MPC109593
311P/PANSTARRS,e,4.9700,279.2264,144.5916,2.188370,0.3044550,0.11528363,319.3686,05/27.0/2020,2000,g 17.0,4.0
# From MPC 92279
